*******************************************************************************
 Revised: Sep 28, 2012             Deimos / (Mars)                          402

 SATELLITE PHYSICAL PROPERTIES:
  Radius (km)             = 7.8 x 6.0 x 5.1 Density (g cm^-3)   =  1.76 +- 0.30
  Mass (10^20 kg )        = 1.80 (10^-5)    Geometric Albedo    =  0.06 
                               (+- 0.15)    V(1,0)              = +12.89

 SATELLITE ORBITAL DATA:
  Semi-major axis, a (km) = 23.4632(10^3)   Orbital period      = 1.263 d
  Eccentricity, e         =  0.00033        Rotational period   = Synchronous
  Inclination, i  (deg)   =  1.791
*******************************************************************************
 
 
*******************************************************************************
Ephemeris / WWW_USER Mon Mar 23 14:07:48 2020 Pasadena, USA      / Horizons    
*******************************************************************************
Target body name: Deimos (402)                    {source: mar097}
Center body name: Deimos (402)                    {source: mar097}
Center-site name: (user defined site below)
*******************************************************************************
Start time      : A.D. 2019-Sep-24 12:00:00.0000 TDB
Stop  time      : A.D. 2019-Sep-24 12:00:10.0000 TDB
Step-size       : 20 steps
*******************************************************************************
Center geodetic : 270.000000,0.00000000,4.776E-16 {W-lon(deg),Lat(deg),Alt(km)}
Center cylindric: 270.000000,7.80000000,0.0000000 {W-lon(deg),Dxy(km),Dz(km)}
Center pole/equ : IAU_DEIMOS                      {West-longitude positive}
Center radii    : 7.8 x 6.0 x 5.1 km              {Equator, meridian, pole}    
Output units    : KM-S                                                         
Output type     : GEOMETRIC cartesian states
Output format   : 3 (position, velocity, LT, range, range-rate)
Reference frame : ICRF/J2000.0                                                 
Coordinate systm: Ecliptic and Mean Equinox of Reference Epoch                 
*******************************************************************************
            JDTDB,            Calendar Date (TDB),                      X,                      Y,                      Z,                     VX,                     VY,                     VZ,                     LT,                     RG,                     RR,
**************************************************************************************************************************************************************************************************************************************************************************
$$SOE
2458751.000000000, A.D. 2019-Sep-24 12:00:00.0000,  6.379412439357488E+00,  3.660201166843025E+00, -2.597310983846928E+00, -1.791703021950341E-04,  3.951486628478265E-04,  1.167832208511198E-04,  2.601799942545586E-05,  7.800000000000000E+00,  6.950013926189132E-21,
2458751.000005787, A.D. 2019-Sep-24 12:00:00.5000,  6.379322851558648E+00,  3.660398739659953E+00, -2.597252591158102E+00, -1.791808864066624E-04,  3.951425899426194E-04,  1.167875300338523E-04,  2.601799942545586E-05,  7.800000000000000E+00,  2.085004177856739E-20,
2458751.000011574, A.D. 2019-Sep-24 12:00:01.0000,  6.379233258490363E+00,  3.660596309390447E+00, -2.597194196329465E+00, -1.791914704669759E-04,  3.951365167111500E-04,  1.167918391186130E-04,  2.601799942545586E-05,  7.800000000000000E+00, -1.390002785237826E-20,
2458751.000017361, A.D. 2019-Sep-24 12:00:01.5000,  6.379143660084826E+00,  3.660793876184051E+00, -2.597135799316801E+00, -1.792020543839856E-04,  3.951304431488213E-04,  1.167961481086637E-04,  2.601799942545586E-05,  7.800000000000000E+00, -4.170008355713479E-20,
2458751.000023148, A.D. 2019-Sep-24 12:00:02.0000,  6.379054056409998E+00,  3.660991439890888E+00, -2.597077400164422E+00, -1.792126381496623E-04,  3.951243692602408E-04,  1.168004570007356E-04,  2.601799942545586E-05,  7.800000000000000E+00,  2.780005570475653E-20,
2458751.000028935, A.D. 2019-Sep-24 12:00:02.5000,  6.378964447443328E+00,  3.661189000560693E+00, -2.597018998857617E+00, -1.792232217666708E-04,  3.951182950438792E-04,  1.168047657959133E-04,  2.601799942545586E-05,  7.799999999999999E+00, -2.085004177856740E-20,
2458751.000034722, A.D. 2019-Sep-24 12:00:03.0000,  6.378874833184888E+00,  3.661386558193309E+00, -2.596960595396440E+00, -1.792338052350021E-04,  3.951122204997415E-04,  1.168090744941934E-04,  2.601799942545587E-05,  7.800000000000001E+00, -6.950013926189130E-21,
2458751.000040509, A.D. 2019-Sep-24 12:00:03.5000,  6.378785213634742E+00,  3.661584112788581E+00, -2.596902189780943E+00, -1.792443885546485E-04,  3.951061456278328E-04,  1.168133830955723E-04,  2.601799942545586E-05,  7.800000000000000E+00, -2.085004177856739E-20,
2458751.000046297, A.D. 2019-Sep-24 12:00:04.0000,  6.378695588815621E+00,  3.661781664296419E+00, -2.596843782025918E+00, -1.792549717229262E-04,  3.951000704296930E-04,  1.168176915989580E-04,  2.601799942545586E-05,  7.800000000000000E+00,  2.085004177856739E-20,
2458751.000052083, A.D. 2019-Sep-24 12:00:04.5000,  6.378605958682310E+00,  3.661979212816488E+00, -2.596785372101915E+00, -1.792655547451744E-04,  3.950939949022575E-04,  1.168220000065238E-04,  2.601799942545587E-05,  7.800000000000002E+00,  5.560011140951303E-20,
2458751.000057871, A.D. 2019-Sep-24 12:00:05.0000,  6.378516323280170E+00,  3.662176758248801E+00, -2.596726960038485E+00, -1.792761376160369E-04,  3.950879190486011E-04,  1.168263083160894E-04,  2.601799942545586E-05,  7.800000000000000E+00, -2.085004177856739E-20,
2458751.000063657, A.D. 2019-Sep-24 12:00:05.5000,  6.378426682541340E+00,  3.662374300742916E+00, -2.596668545791414E+00, -1.792867203435255E-04,  3.950818428641241E-04,  1.168306165309162E-04,  2.601799942545586E-05,  7.799999999999999E+00,  2.085004177856740E-20,
2458751.000069445, A.D. 2019-Sep-24 12:00:06.0000,  6.378337036556476E+00,  3.662571840099052E+00, -2.596610129419773E+00, -1.792973029169379E-04,  3.950757663549713E-04,  1.168349246466471E-04,  2.601799942545586E-05,  7.799999999999999E+00,  6.950013926189132E-21,
2458751.000075231, A.D. 2019-Sep-24 12:00:06.5000,  6.378247385235072E+00,  3.662769376516652E+00, -2.596551710864583E+00, -1.793078853469583E-04,  3.950696895150077E-04,  1.168392326676321E-04,  2.601799942545587E-05,  7.800000000000001E+00, -2.085004177856739E-20,
2458751.000081019, A.D. 2019-Sep-24 12:00:07.0000,  6.378157728667783E+00,  3.662966909795951E+00, -2.596493290184923E+00, -1.793184676228851E-04,  3.950636123503784E-04,  1.168435405895143E-04,  2.601799942545586E-05,  7.800000000000000E+00, -2.085004177856739E-20,
2458751.000086806, A.D. 2019-Sep-24 12:00:07.5000,  6.378068066786746E+00,  3.663164440086483E+00, -2.596434867336567E+00, -1.793290497527289E-04,  3.950575348564836E-04,  1.168478484155549E-04,  2.601799942545586E-05,  7.799999999999999E+00,  4.865009748332392E-20,
2458751.000092593, A.D. 2019-Sep-24 12:00:08.0000,  6.377978399614684E+00,  3.663361967338185E+00, -2.596376442334322E+00, -1.793396317338081E-04,  3.950514570348633E-04,  1.168521561446623E-04,  2.601799942545587E-05,  7.800000000000001E+00, -6.950013926189130E-21,
2458751.000098380, A.D. 2019-Sep-24 12:00:08.5000,  6.377888727151663E+00,  3.663559491550898E+00, -2.596318015178238E+00, -1.793502135661140E-04,  3.950453788855220E-04,  1.168564637768327E-04,  2.601799942545587E-05,  7.800000000000001E+00, -2.085004177856739E-20,
2458751.000104167, A.D. 2019-Sep-24 12:00:09.0000,  6.377799049397766E+00,  3.663757012724451E+00, -2.596259585868361E+00, -1.793607952496373E-04,  3.950393004084655E-04,  1.168607713120625E-04,  2.601799942545587E-05,  7.799999999999999E+00,  2.780005570475653E-20,
2458751.000109954, A.D. 2019-Sep-24 12:00:09.5000,  6.377709366353066E+00,  3.663954530858683E+00, -2.596201154404740E+00, -1.793713767843695E-04,  3.950332216036985E-04,  1.168650787503483E-04,  2.601799942545587E-05,  7.799999999999999E+00, -4.170008355713479E-20,
2458751.000115741, A.D. 2019-Sep-24 12:00:10.0000,  6.377619678017627E+00,  3.664152045953441E+00, -2.596142720787428E+00, -1.793819581703025E-04,  3.950271424712258E-04,  1.168693860916866E-04,  2.601799942545587E-05,  7.800000000000001E+00, -2.780005570475652E-20,
$$EOE
**************************************************************************************************************************************************************************************************************************************************************************
Coordinate system description:

  Ecliptic and Mean Equinox of Reference Epoch

    Reference epoch: J2000.0
    XY-plane: plane of the Earth's orbit at the reference epoch
              Note: obliquity of 84381.448 arcseconds wrt ICRF equator (IAU76)
    X-axis  : out along ascending node of instantaneous plane of the Earth's
              orbit and the Earth's mean equator at the reference epoch
    Z-axis  : perpendicular to the xy-plane in the directional (+ or -) sense
              of Earth's north pole at the reference epoch.

  Symbol meaning:

    JDTDB    Julian Day Number, Barycentric Dynamical Time
      X      X-component of position vector (km)                               
      Y      Y-component of position vector (km)                               
      Z      Z-component of position vector (km)                               
      VX     X-component of velocity vector (km/sec)                           
      VY     Y-component of velocity vector (km/sec)                           
      VZ     Z-component of velocity vector (km/sec)                           
      LT     One-way down-leg Newtonian light-time (sec)                       
      RG     Range; distance from coordinate center (km)                       
      RR     Range-rate; radial velocity wrt coord. center (km/sec)            

Geometric states/elements have no aberrations applied.

 Computations by ...
     Solar System Dynamics Group, Horizons On-Line Ephemeris System
     4800 Oak Grove Drive, Jet Propulsion Laboratory
     Pasadena, CA  91109   USA
     Information: http://ssd.jpl.nasa.gov/
     Connect    : telnet://ssd.jpl.nasa.gov:6775  (via browser)
                  http://ssd.jpl.nasa.gov/?horizons
                  telnet ssd.jpl.nasa.gov 6775    (via command-line)
     Author     : Jon.D.Giorgini@jpl.nasa.gov
*******************************************************************************

!$$SOF
COMMAND = '402'
CENTER =  'coord@402'
COORD_TYPE = 'GEODETIC'
SITE_COORD = '-90,0,0'
MAKE_EPHEM = 'YES'
TABLE_TYPE = 'VECTORS'
START_TIME = '2019-09-24 12:00:00.0'
STOP_TIME = '2019-09-24 12:00:10.0'
STEP_SIZE = '20'
OUT_UNITS =  'KM-S'
VECT_TABLE =  '3'
REF_PLANE =  'ECLIPTIC'
REF_SYSTEM =  'J2000'
VECT_CORR =  'NONE'
VEC_LABELS =  'NO'
CSV_FORMAT =  'YES'
OBJ_DATA =  'YES'
